"id","ident","type","name","latitude_deg","longitude_deg","elevation_ft","continent","iso_country","iso_region","municipality","scheduled_service","gps_code","iata_code","local_code","home_link","wikipedia_link","keywords"
2640,"LE83","small_airport","Aeródromo forestal de Mojados",41.465728,-4.713068,2329,"EU","ES","ES-CL","Mojados","no","LEOA",,,,"https://es.wikipedia.org/wiki/Aer%C3%B3dromo_de_Mojados",
2641,"LE84","small_airport","Jayena Airfield",36.930698,-3.83538,3654,"EU","ES","ES-AN","Jayena","no",,,,,,
31809,"LE85","closed","Tablada Airport",37.3517,-6.01456,26,"EU","ES","ES-AN","Sevilla","no",,,,,,
3996,"LEAB","medium_airport","Albacete-Los Llanos Airport",38.9485015869,-1.8635200262099998,2302,"EU","ES","ES-CM","Albacete","yes","LEAB","ABC",,"http://www.aena.es/csee/Satellite?cid=1046767815090&pagename=subHome&Language=EN_GB&SiteName=LEAB&c=Page","https://en.wikipedia.org/wiki/Albacete_Airport","Los Llanos Air Base"
3997,"LEAL","large_airport","Alicante International Airport",38.28219985961914,-0.5581560134887695,142,"EU","ES","ES-V","Alicante","yes","LEAL","ALC",,"http://www.aena.es/csee/Satellite?cid=1049437849176&pagename=subHome&Language=EN_GB&SiteName=ALC&c=Page","https://en.wikipedia.org/wiki/Alicante_Airport",
3998,"LEAM","medium_airport","Almería International Airport",36.84389877319336,-2.3701000213623047,70,"EU","ES","ES-AN","Almería","yes","LEAM","LEI",,"http://www.aena.es/csee/Satellite?cid=1048146844127&pagename=subHome&Language=EN_GB&SiteName=LEI&c=Page","https://en.wikipedia.org/wiki/Almer%C3%ADa_International_Airport",
29409,"LEAP","small_airport","Ampuriabrava Airfield",42.259998,3.109722,2,"EU","ES","ES-CT","Empuriabrava","no","LEAP",,,,,"Empuriabrava,Ampuriabrava"
3999,"LEAS","medium_airport","Asturias Airport",43.5635986328125,-6.0346198081970215,416,"EU","ES","ES-O","Ranón","yes","LEAS","OVD",,"http://www.aena.es/csee/Satellite?cid=1047658435997&pagename=subHome&Language=EN_GB&SiteName=OVD&c=Page","https://en.wikipedia.org/wiki/Asturias_Airport",
31805,"LEAT","closed","Alfes Airport",41.549999,0.65,705,"EU","ES","ES-L","LLeida - Alfes","no","LEAT",,,,,
30054,"LEAX","small_airport","La Axarquía-Leoni Benabu Airport",36.801666259765625,-4.135556221008301,118,"EU","ES","ES-AN","Málaga","no","LEAX",,,,,
4000,"LEBA","medium_airport","Córdoba Airport",37.84199905395508,-4.848879814147949,297,"EU","ES","ES-AN","Córdoba","no","LEBA","ODB",,"http://www.aena.es/csee/Satellite?cid=1046972065602&pagename=subHome&Language=EN_GB&SiteName=ODB&c=Page","https://en.wikipedia.org/wiki/C%C3%B3rdoba_Airport",
4001,"LEBB","medium_airport","Bilbao Airport",43.30110168457031,-2.9106099605560303,138,"EU","ES","ES-PV","Bilbao","yes","LEBB","BIO",,"http://www.aena.es/csee/Satellite?cid=1047658432525&pagename=subHome&Language=EN_GB&SiteName=BIO&c=Page","https://en.wikipedia.org/wiki/Bilbao_Airport",
43249,"LEBC","heliport","Costa Brava-Centro Heliport",41.807701110839844,3.037179946899414,42,"EU","ES","ES-CT",,"no","LEBC",,,,,
4002,"LEBE","small_airport","Beas De Segura Airport",38.27111053466797,-2.9488890171051025,1780,"EU","ES","ES-AN","Jaén","no","LEBE",,,,,
4003,"LEBG","medium_airport","Burgos Airport",42.357601,-3.62076,2945,"EU","ES","ES-CL","Burgos","no","LEBG","RGS",,"http://www.aena.es/csee/Satellite?cid=1047546622026&pagename=subHome&Language=EN_GB&SiteName=LEBG&c=Page","https://en.wikipedia.org/wiki/Burgos_Airport",
43295,"LEBI","heliport","Sa Sabina Heliport",38.71659851074219,1.3999600410461426,44,"EU","ES","ES-PM","Formentera Island","no","LEBI",,,,,
4004,"LEBL","large_airport","Barcelona International Airport",41.2971,2.07846,12,"EU","ES","ES-CT","Barcelona","yes","LEBL","BCN",,"http://www.aena.es/en/barcelona-airport/index.html","https://en.wikipedia.org/wiki/Barcelona%E2%80%93El_Prat_Airport","El Prat Airport"
43239,"LEBP","heliport","BP Oil España Heliport",39.957901,-0.011632,943,"EU","ES","ES-V","Castellón de La Plana","no","LEBP",,,,,
4005,"LEBZ","medium_airport","Badajoz Airport",38.891300201416016,-6.8213300704956055,609,"EU","ES","ES-EX","Badajoz","yes","LEBZ","BJZ",,"http://www.aena.es/csee/Satellite?cid=1047546622728&pagename=subHome&Language=EN_GB&SiteName=BJZ&c=Page","https://en.wikipedia.org/wiki/Badajoz_Airport","Talavera La Real Airport"
43278,"LECA","small_airport","La Nava - Corral De Ayllón Airfield",41.410801,-3.44833,3280,"EU","ES","ES-CL","Corral de Ayllón","no","LECA",,,,,
43244,"LECC","heliport","Cas Curredó Heliport",38.929100036621094,1.4663300514221191,278,"EU","ES","ES-PM","Ibiza Island","no","LECC",,,,,
4006,"LECD","small_airport","La Cerdanya Airport",42.38639831542969,1.86667001247406,3586,"EU","ES","ES-CT","Alp","no","LECD",,,,,
43241,"LECF","small_airport","Calaf-Sallavinera Airport",41.744202,1.55694,2355,"EU","ES","ES-CT","Sant Pere Sallavinera","no","LECF",,,,"https://es.wikipedia.org/wiki/Aer%C3%B3dromo_de_Calaf-Salavinera",
300859,"LECH","medium_airport","Castellón-Costa Azahar Airport",40.213889,0.073333,1145,"EU","ES","ES-CS","Castellón de la Plana","yes","LECH","CDT",,"http://www.aeropuerto-castellon.com/","https://en.wikipedia.org/wiki/Castell%C3%B3n%E2%80%93Costa_Azahar_Airport",
30367,"LECI","small_airport","Santa Cilia De Jaca Airport",42.569199,-0.727778,2241,"EU","ES","ES-AR","Huesca","no","LECI",,,"http://www.fly-pyr.es",,
43247,"LECJ","small_airport","Castejón de los Monegros Airport",41.6077995300293,-0.21832700073719025,1424,"EU","ES","ES-AR","Huesca","no","LECJ",,,,,
29760,"LECN","small_airport","Castellon De La Plana Aerodrome",39.999199,0.026111,20,"EU","ES","ES-V","Castellón de La Plana","no","LECN",,,"http://aeroclubcastellon.com","https://en.wikipedia.org/wiki/Castell%C3%B3n_Airport",
4007,"LECO","medium_airport","A Coruña Airport",43.302101,-8.37726,326,"EU","ES","ES-GA","Culleredo","yes","LECO","LCG",,"http://www.aena.es/csee/Satellite?cid=1048146841342&pagename=subHome&SiteName=LCG&c=Page&Language=EN_GB","https://en.wikipedia.org/wiki/A_Coru%C3%B1a_Airport","The Groyne, La Coruña"
43254,"LECT","small_airport","El Castaño Airport",39.010700225799994,-4.38636016846,2116,"EU","ES","ES-CM","Luciana","no","LECT",,,,,
4044,"LECU","medium_airport","Cuatro Vientos Airport",40.370701,-3.78514,2269,"EU","ES","ES-M","Madrid","no","LECU","ECV",,"http://www.enaire.es/csee/Satellite/navegacion-aerea/es/Page/1078418725163/?other=1083158950596&other2=1083857758855#ancla332","https://en.wikipedia.org/wiki/Cuatro_Vientos_Airport","LEVS"
326765,"LECV","heliport","Base Aérea de Colmenar Viejo",40.697296,-3.763255,3264,"EU","ES","ES-M","Colmenar Viejo","no","LECV",,,,,"FAMET"
43243,"LECX","closed","Campolara Airport",40.903099,-4.52028,3353,"EU","ES","ES-CL","Segovia","no","LECX",,,,,
308328,"LEDA","medium_airport","Lleida-Alguaire Airport",41.728185,0.535023,1170,"EU","ES","ES-CT","Lleida","yes","LEDA","ILD",,"http://www.aeroportlleida.cat/?L=2","https://en.wikipedia.org/wiki/Lleida-Alguaire_Airport",
43251,"LEDG","heliport","Dirección General de Tráfico Heliport",40.44929885864258,-3.6461305618286133,2336,"EU","ES","ES-M","Madrid","no","LEDG",,,,,
43267,"LEDO","heliport","Hospital Doce de Octubre Heliport",40.3747362789,-3.69985252619,1970,"EU","ES","ES-M","Madrid","no","LEDO",,,,,
326764,"LEEC","heliport","Base Aérea de El Copero",37.313164,-5.999058,20,"EU","ES","ES-SE","Dos Hermanas","no","LEEC",,,,"https://es.wikipedia.org/wiki/El_Copero",
43256,"LEEL","heliport","El Musel Heliport",43.54973220825195,-5.695445537567139,1,"EU","ES","ES-O","Gijón","no","LEEL",,,,,
43255,"LEEM","small_airport","El Manantío Airport",38.77750778198242,-6.991124153137207,708,"EU","ES","ES-EX","Badajoz","no","LEEM",,,,,
43252,"LEEV","small_airport","E. Castellanos-Villacastín Airport",40.78390121459961,-4.462779998779297,3637,"EU","ES","ES-CL","Villacastin","no","LEEV",,,,,
43259,"LEEX","heliport","Expo 92 Heliport",37.39929962158203,-6.010674953460693,30,"EU","ES","ES-AN","Sevilla","no","LEEX",,,,,
4008,"LEFM","small_airport","Fuentemilanos Airport",40.888610839799995,-4.23750019073,3307,"EU","ES","ES-CL","Segovia","no","LEFM",,,,"http://es.wikipedia.org/wiki/Aer%C3%B3dromo_de_Fuentemilanos",
43260,"LEFR","heliport","Fira M2 Heliport",41.35390090942383,2.1291699409484863,34,"EU","ES","ES-CT","Barcelona","no","LEFR",,,,,
4009,"LEGA","medium_airport","Armilla Air Base",37.1332016,-3.63568997,2297,"EU","ES","ES-AN","Armilla","no","LEGA",,,,,
43235,"LEGC","small_airport","Altarejos-Guadalcanal Private Airfield",38.1717,-5.73953,1928,"EU","ES","ES-AN","Sevilla","no","LEGC",,,,,
43261,"LEGD","heliport","Garidells Heliport",41.21390151977539,1.2415599822998047,434,"EU","ES","ES-CT","Tarragona","no","LEGD",,,,,
4010,"LEGE","medium_airport","Girona Airport",41.901000977,2.7605500221,468,"EU","ES","ES-GE","Girona","yes","LEGE","GRO",,,"https://en.wikipedia.org/wiki/Girona-Costa_Brava_Airport",
331423,"LEGP","closed","El Rinconcillo de Guadalupe",39.5941266,-6.2062759,,"EU","ES","ES-CC",,"no","LEGP",,,,,
4011,"LEGR","medium_airport","Federico Garcia Lorca Airport",37.18870162963867,-3.777359962463379,1860,"EU","ES","ES-AN","Granada","yes","LEGR","GRX",,,"https://en.wikipedia.org/wiki/Federico_Garc%C3%ADa_Lorca_Airport",
43292,"LEGS","heliport","Parque De Garraf-Sitges Heliport",41.27389907836914,1.914720058441162,1100,"EU","ES","ES-CT",,"no","LEGS",,,,,
4012,"LEGT","medium_airport","Getafe Air Base",40.29410171508789,-3.723829984664917,2031,"EU","ES","ES-M","Getafe","no","LEGT",,,,"https://en.wikipedia.org/wiki/Getafe_Air_Base",
43262,"LEGU","small_airport","Aeródromo de Guadalupe",39.345699,-5.19735,1408,"EU","ES","ES-EX","Guadalupe","no","LEGU",,,,,
43242,"LEGV","heliport","Campo Gaviota Heliport",43.44169998168945,-2.7536098957061768,630,"EU","ES","ES-PV",,"no","LEGV",,,,,
38693,"LEGY","small_airport","Garray Airport",41.82310104370117,-2.478610038757324,3360,"EU","ES","ES-CL","Soria","no","LEGY",,,,"http://es.wikipedia.org/wiki/Aer%C3%B3dromo_de_Garray-Soria",
43265,"LEHA","heliport","Hospital Alcorcón Heliport",40.349702376299994,-3.83819013834,2269,"EU","ES","ES-M","Alcorcón","no","LEHA",,,,,
43248,"LEHB","heliport","Ciudad Sanitaria y Universitaria de Bellvitge Heliport",41.345298767089844,2.107290029525757,35,"EU","ES","ES-CT","Barcelona","no","LEHB",,,,,
29967,"LEHC","small_airport","Huesca/Pirineos Airport",42.0760993958,-0.316666990519,1768,"EU","ES","ES-AR","Monflorite/Alcalá del Obispo","no","LEHC","HSK",,,"https://en.wikipedia.org/wiki/Huesca%E2%80%93Pirineos_Airport",
43264,"LEHE","heliport","Helicsa Heliport",39.07120132446289,-1.8343499898910522,2226,"EU","ES","ES-CM","Albacete","no","LEHE",,,,,
43269,"LEHG","heliport","Hospital General De Catalunya Heliport",41.47359848022461,2.0425000190734863,385,"EU","ES","ES-CT",,"no","LEHG",,,,,
31807,"LEHI","small_airport","Hinojosa del Duque Airport",38.51209,-5.107215,1772,"EU","ES","ES-AN","Hinojosa del Duque","no","LEHI",,,,,
43273,"LEHJ","heliport","Hospital Universitario Joan XXIII Heliport",41.1255989074707,1.23812997341156,75,"EU","ES","ES-CT","Tarragona","no","LEHJ",,,,,
43270,"LEHM","heliport","Hospital General De Manresa Heliport",41.720001220703125,1.840559959411621,962,"EU","ES","ES-CT","Manresa","no","LEHM",,,,,
4013,"LEIB","medium_airport","Ibiza Airport",38.872898101800004,1.3731199502899998,24,"EU","ES","ES-PM","Ibiza","yes","LEIB","IBZ",,,"https://en.wikipedia.org/wiki/Ibiza_Airport",
38691,"LEIG","small_airport","Igualada/Odena Airfield",41.585602,1.65306,1148,"EU","ES","ES-CT","Barcelona","no","LEIG",,,"http://www10.gencat.net/ptop/AppJava/cat/aerotrans/aerodroms/aerodroms/igualada.jsp",,
43275,"LEIU","heliport","Iurreta Heliport",43.18190002441406,-2.646389961242676,422,"EU","ES","ES-PV","Durango","no","LEIU",,,,,
4014,"LEIZ","small_airport","La Perdiz - Torre De Juan Abad Airport",38.5130996704,-3.36433005333,2902,"EU","ES","ES-CM","Torre de Juan Abad","no","LEIZ",,,,,
43274,"LEJC","heliport","Hotel Rey Juan Carlos I Heliport",41.38249969482422,2.1091699600219727,287,"EU","ES","ES-CT","Barcelona","no","LEJC",,,,,
43282,"LEJO","small_airport","Madrigalejo Del Monte Airport",42.1343994140625,-3.731029987335205,3030,"EU","ES","ES-CL","Madrigalejo Del Monte","no","LEJO",,,,,
4015,"LEJR","medium_airport","Jerez Airport",36.744598388671875,-6.060110092163086,93,"EU","ES","ES-AN","Jerez de la Forntera","yes","LEJR","XRY",,,"https://en.wikipedia.org/wiki/Jerez_Airport",
43268,"LEJT","heliport","Hospital Doctor Josep Trueta Heliport",41.99789810180664,2.8213999271392822,215,"EU","ES","ES-CT","Gerona","no","LEJT",,,,,
43277,"LEJU","small_airport","La Juliana Airport",37.29499816894531,-6.162499904632568,148,"EU","ES","ES-AN","Sevilla","no","LEJU",,,,,
4016,"LELA","small_airport","La Calderera Airport",38.74789810180664,-3.5145599842071533,2644,"EU","ES","ES-CM","Valdepeñas","no","LELA",,,,,
4017,"LELC","medium_airport","San Javier Airport",37.775001525878906,-0.8123890161514282,11,"EU","ES","ES-MU","San Javier","yes","LELC","MJV",,,"https://en.wikipedia.org/wiki/Murcia-San_Javier_Airport",
43233,"LELH","small_airport","Alhama De Murcia Airport",37.7489013671875,-1.3021600246429443,669,"EU","ES","ES-MU","Cánovas","no","LELH",,,,,
43280,"LELI","small_airport","Aeródromo de Linares",38.133211,-3.642554,1033,"EU","ES","ES-AN","Linares","no","LELI",,,,"https://es.wikipedia.org/wiki/Aer%C3%B3dromo_de_Linares",
29412,"LELL","small_airport","Sabadell Airport",41.52090072631836,2.1050798892974854,485,"EU","ES","ES-CT","Sabadell","no","LELL","QSA",,,,
43234,"LELM","small_airport","Almansa Airport",38.89500045776367,-1.1131800413131714,2248,"EU","ES","ES-CM","Albacete","no","LELM",,,,,
4018,"LELN","medium_airport","Leon Airport",42.5890007019043,-5.65556001663208,3006,"EU","ES","ES-CL","León","no","LELN","LEN",,,"https://en.wikipedia.org/wiki/Le%C3%B3n_Airport",
30083,"LELO","small_airport","Logroño-Agoncillo Airport",42.4609534888,-2.32223510742,1161,"EU","ES","ES-LO","Logroño","yes","LERJ","RJL",,,"https://en.wikipedia.org/wiki/Logro%C3%B1o%E2%80%93Agoncillo_Airport","LELO"
43279,"LELT","small_airport","Lillo Airport",39.71689987182617,-3.3205599784851074,2272,"EU","ES","ES-CM","Lillo","no","LELT",,,,,
4019,"LEMD","large_airport","Adolfo Suárez Madrid–Barajas Airport",40.471926,-3.56264,1998,"EU","ES","ES-M","Madrid","yes","LEMD","MAD",,"http://www.aena.es/en/passengers/passengers.html","https://en.wikipedia.org/wiki/Adolfo_Su%C3%A1rez_Madrid%E2%80%93Barajas_Airport","Leganés, Madrid Barajas International Airport"
43283,"LEMF","small_airport","Mafé - Gibraleón Airport",37.3643,-6.92094,86,"EU","ES","ES-AN","Gibraleón","no","LEMF",,,,,
4020,"LEMG","large_airport","Málaga Airport",36.67490005493164,-4.499110221862793,53,"EU","ES","ES-AN","Málaga","yes","LEMG","AGP",,,"https://en.wikipedia.org/wiki/M%C3%A1laga_Airport","Costa del Sol"
4021,"LEMH","medium_airport","Menorca Airport",39.86259841918945,4.218649864196777,302,"EU","ES","ES-PM","Menorca Island","yes","LEMH","MAH",,,"https://en.wikipedia.org/wiki/Menorca_Airport",
43263,"LEMN","heliport","Heli Montsiá - Amposta Heliport",40.66640090942383,0.5647220015525818,254,"EU","ES","ES-CT","Tarragona","no","LEMN",,,,,
4022,"LEMO","medium_airport","Moron Air Base",37.17490005493164,-5.615940093994141,285,"EU","ES","ES-AN","Morón","no","LEMO","OZP",,,"https://en.wikipedia.org/wiki/Mor%C3%B3n_Air_Base",
43281,"LEMP","small_airport","Los Martínez Del Puerto Airport",37.8368166667,-1.09766666667,534,"EU","ES","ES-MU","Murcia","no","LEMP",,,,,
4023,"LEMR","small_airport","La Morgal Airport",43.4291992188,-5.8305602073700005,541,"EU","ES","ES-O","Oviedo","no","LEMR",,,"http://www.aeroclubllanera.com/","http://es.wikipedia.org/wiki/Aer%C3%B3dromo_de_La_Morgal",
43284,"LEMS","small_airport","Manresa Airport",41.76530075073242,1.8616700172424316,897,"EU","ES","ES-CT","Manresa","no","LEMS",,,,,
43245,"LEMT","small_airport","Casarrubios Del Monte Airport",40.235001,-4.02639,2050,"EU","ES","ES-CM","Toledo","no","LEMT",,,,,
30168,"LEMU","small_airport","Muchamiel Airport",38.44060134887,-0.4752779901028,427,"EU","ES","ES-V","Muchamiel","no","LEMU",,,"http://www.aerodromodemutxamel.es/","https://es.wikipedia.org/wiki/Aer%C3%B3dromo_de_Muchamiel",
34924,"LEMX","small_airport","La Mancha-Toledo Airport",39.56209945678711,-3.2507500648498535,2405,"EU","ES","ES-CM","Toledo","no","LEMX",,,,,
43237,"LENA","small_airport","Benabarre Airport",42.0228,0.482222,2450,"EU","ES","ES-AR","Huesca","no","LENA",,,"http://aerodromobenabarre.info","https://es.wikipedia.org/wiki/Aeródromo_de_Benabarre","Benabarre,"
43240,"LENB","heliport","Cala'n Blanes Heliport",39.997501373291016,3.8133299350738525,27,"EU","ES","ES-PM","Menorca Island","no","LENB",,,,,
331318,"LENE","small_airport","La Caminera",38.6686679,-3.3031456,,"EU","ES","ES-CM",,"no","LENE",,,,,
43288,"LENH","heliport","Nou Hospital De Mataró Heliport",41.56079864501953,2.429719924926758,638,"EU","ES","ES-CT","Mataró","no","LENH",,,,,
43266,"LENM","heliport","Hospital Can Misses Heliport",38.91749954223633,1.4194400310516357,91,"EU","ES","ES-PM","Ibiza Island","no","LENM",,,,,
333776,"LENN","small_airport","La Centenera",38.11489,-4.11547,2169,"EU","ES","ES-J","Marmolejo","no","LENN",,,,,
313892,"LEO","small_airport","Lekoni Airport",-1.5724,14.2878,2036,"AF","GA","GA-2","Lekoni","no",,"LEO",,,,"Léconi"
4024,"LEOC","small_airport","Ocaña Airport",39.9375,-3.5033299922943115,2405,"EU","ES","ES-CM","Toledo","no","LEOC",,,,,
43291,"LEOR","heliport","Parque De Bomberos De Orriols Heliport",42.132198333740234,2.9038898944854736,530,"EU","ES","ES-CT","Orriols","no","LEOR",,,,,
315993,"LEOS","small_airport","Aeródromo de los Oteros",42.3330555556,-5.4519444444,2620,"EU","ES","ES-LE","Pajares de Los Oteros","no","LEOS",,,"http://www.aerodromolosoteros.com",,
43289,"LEOT","small_airport","Ontur Airport",38.61690139770508,-1.524999976158142,2200,"EU","ES","ES-CM","Ontur","no","LEOT",,,,,
4035,"LEPA","large_airport","Palma De Mallorca Airport",39.551700592,2.73881006241,27,"EU","ES","ES-PM","Palma De Mallorca","yes","LEPA","PMI",,"http://www.aena.es/csee/Satellite?cid=1046276292735&pagename=subHome&Language=EN_GB&SiteName=PMI&c=Page","https://en.wikipedia.org/wiki/Son_Sant_Joan_Airport","Son Sant Joan Airport, LESJ"
43236,"LEPB","heliport","Autoridad Portuaria de Barcelona Heliport",41.36429977416992,2.1830101013183594,29,"EU","ES","ES-CT","Barcelona","no","LEPB",,,,,"Helipuerto de la autoridad portuaria de Barcelona, Port Authority of Barcelona Heliport"
43246,"LEPI","small_airport","Casas de los Pinos Airport",39.29819869995117,-2.3787200450897217,2370,"EU","ES","ES-CM","Cuenca","no","LEPI",,,,,
4025,"LEPP","medium_airport","Pamplona Airport",42.77000045776367,-1.6463299989700317,1504,"EU","ES","ES-NA","Pamplona","yes","LEPP","PNA",,,"https://en.wikipedia.org/wiki/Pamplona_Airport",
43290,"LEPR","small_airport","Palma Del Río Airport",37.715301513671875,-5.213560104370117,408,"EU","ES","ES-AN","Palma del Rio","no","LEPR",,,,,
43285,"LEPS","heliport","Mas Passamaner Heliport",41.1859016418457,1.1599199771881104,480,"EU","ES","ES-CT","Reus","no","LEPS",,,,,
43250,"LEPV","heliport","Costa Norte-Puerto de Viveiro-Celeiro Heliport",43.674800872802734,-7.5952301025390625,13,"EU","ES","ES-GA","Vivero","no","LEPV",,,,,
43257,"LEPY","heliport","El Portinyol Heliport",41.583499908447266,2.5607900619506836,200,"EU","ES","ES-CT","Barcelona","no","LEPY",,,,,
4026,"LEPZ","small_airport","Los Pozuelos De Calatrava Airport",38.9122009277,-4.19111013412,1850,"EU","ES","ES-CM","Los Pozuelos De Calatrava","no","LEPZ",,,,,
43293,"LERA","heliport","R.A.C.C. Heliport",41.38330078125,2.108330011367798,300,"EU","ES","ES-CT","Barcelona","no","LERA",,,,,
43294,"LERE","small_airport","Aeródromo Requena El Rebollar",39.474701,-1.03444,2340,"EU","ES","ES-V","Requena","no","LERE",,,"http://www.flyrequena.com/index.htm",,
43238,"LERG","heliport","Berga Heliport",42.10559844970703,1.8533300161361694,2300,"EU","ES","ES-CT","Berga","no","LERG",,,,,
4027,"LERI","medium_airport","Alcantarilla Air Base",37.951099,-1.23032,250,"EU","ES","ES-MU","Alcantarilla","no","LERI",,,,,
46583,"LERL","closed","Ciudad Real Central Airport",38.8563888889,-3.97,,"EU","ES","ES-CM","Ciudad Real","no","LERL","CQM",,"http://www.aeropuertocentralcr.com/","https://en.wikipedia.org/wiki/Ciudad_Real_Central_Airport",
4029,"LERM","small_airport","Robledillo De Mohernando Airport",40.865299224853516,-3.2477800846099854,3097,"EU","ES","ES-CM","Robledillo De Mohernando","no","LERM",,,,,
4030,"LERO","small_airport","Rozas Airport",43.11690139770508,-7.470280170440674,1444,"EU","ES","ES-GA","Lugo","no","LERO",,,,,
4031,"LERS","medium_airport","Reus Air Base",41.14739990234375,1.1671700477600098,233,"EU","ES","ES-CT","Reus","yes","LERS","REU",,,"https://en.wikipedia.org/wiki/Reus_Airport",
4032,"LERT","medium_airport","Rota Naval Station Airport",36.645198822,-6.34946012497,86,"EU","ES","ES-AN","Rota","no","LERT","ROZ",,,"https://en.wikipedia.org/wiki/Naval_Station_Rota_Spain",
43300,"LERV","heliport","Servei D'Evacuació Del Circuit De Catalunya Heliport",41.571998596191406,2.2620298862457275,406,"EU","ES","ES-CT",,"no","LERV",,,,,
333777,"LERY","heliport","King Juan Carlos Hospital Heliport",40.340433,-3.86951,2207,"EU","ES","ES-M","Móstoles","no","LERY",,,,,
4033,"LESA","medium_airport","Salamanca Airport",40.95209884643555,-5.501989841461182,2595,"EU","ES","ES-CL","Salamanca","yes","LESA","SLM",,,"https://en.wikipedia.org/wiki/Salamanca_Airport",
4034,"LESB","small_airport","Son Bonet Airport",39.598899841308594,2.70278000831604,157,"EU","ES","ES-PM","Mallorca Island","no","LESB",,,,"https://en.wikipedia.org/wiki/Son_Bonet_Aerodrome",
43296,"LESE","small_airport","San Enrique Airport",38.73080062866211,-4.3130598068237305,2263,"EU","ES","ES-CM","Almodóvar del Campo","no","LESE",,,,,
43298,"LESG","small_airport","Sangüesa Airport",42.56560134887695,-1.2847199440002441,1297,"EU","ES","ES-NA","Sangüesa","no","LESG",,,,,
4036,"LESL","small_airport","San Luis Airport",39.86220169067383,4.25832986831665,197,"EU","ES","ES-PM","Menorca Island","no","LESL",,,,"https://en.wikipedia.org/wiki/San_Luis_Aerodrome",
4037,"LESO","medium_airport","San Sebastian Airport",43.35649871826172,-1.7906099557876587,16,"EU","ES","ES-PV","Hondarribia","yes","LESO","EAS",,,"https://en.wikipedia.org/wiki/San_Sebasti%C3%A1n_Airport",
43271,"LESP","heliport","Hospital San Pau Heliport",41.41350173950195,2.1719601154327393,265,"EU","ES","ES-CT","Barcelona","no","LESP",,,,,
43302,"LESS","small_airport","Sotos Airport",40.204200744628906,-2.143889904022217,3170,"EU","ES","ES-CM","Sotos","no","LESS",,,,,
4038,"LEST","large_airport","Santiago de Compostela Airport",42.89630126953125,-8.415140151977539,1213,"EU","ES","ES-GA","Santiago de Compostela","yes","LEST","SCQ",,,"https://en.wikipedia.org/wiki/Santiago_de_Compostela_Airport",
4039,"LESU","small_airport","Pirineus - la Seu d'Urgel Airport",42.3386,1.40917,2625,"EU","ES","ES-CT","La Seu d'Urgell Pyrenees and Andorra","yes","LESU","LEU",,"http://www10.gencat.net/ptop/AppJava/cat/aerotrans/aerodroms/aerodroms/pirineus.jsp","https://en.wikipedia.org/wiki/La_Seu_d'Urgell_Airport","Montferrer, Castellbò"
43301,"LETA","heliport","Servei Generals Del Circuit De Catalunya Heliport",41.57400131225586,2.257159948348999,470,"EU","ES","ES-CT","Barcelona","no","LETA",,,,,
43286,"LETC","small_airport","Matilla De Los Caños Airport",41.530601501464844,-4.925000190734863,2300,"EU","ES","ES-CL","Valladolid","no","LETC",,,,,
43287,"LETE","small_airport","Morante Airport",39.03689956665039,-6.6905598640441895,703,"EU","ES","ES-EX","Badajoz","no","LETE",,,,,
43304,"LETF","small_airport","Tomás Fernández Espada Airport",36.8717934415,-5.64877510071,470,"EU","ES","ES-AN","Villamartin","yes","LETF",,,"http://www.fly-pedro.com/en/ad.html",,
4040,"LETI","small_airport","El Tietar Airport",40.243900299072266,-4.794439792633057,1401,"EU","ES","ES-CM","La Iglesuela","no","LETI",,,,,
316427,"LETL","medium_airport","Teruel Airport",40.403,-1.2183,3380,"EU","ES","ES-AR","Teruel","no","LETL","TEV",,"http://www.aeropuertodeteruel.com/en/","https://en.wikipedia.org/wiki/Teruel_Airport",
43299,"LETM","heliport","Sant Martí De Sescorts Heliport",42.015499114990234,2.3192501068115234,1672,"EU","ES","ES-CT",,"no","LETM",,,,,
4041,"LETO","medium_airport","Torrejón Airport",40.496700286865234,-3.4458699226379395,2026,"EU","ES","ES-M","Madrid","no","LETO","TOJ",,,"https://en.wikipedia.org/wiki/Madrid-Torrej%C3%B3n_Airport",
30383,"LETP","small_airport","Santo Tome Del Puerto Airport",41.204200744628906,-3.594719886779785,3638,"EU","ES","ES-CL","Segovia","no","LETP",,,,,
43307,"LETR","heliport","Tremp Heliport",42.16939926147461,0.8927779793739319,1930,"EU","ES","ES-CT","Tremp","no","LETR",,,,,
43306,"LETS","heliport","Torre Picasso Heliport",40.44982914369999,-3.69314432144,2340,"EU","ES","ES-M","Madrid","no","LETS",,,,,
43303,"LETV","heliport","Tirviá Heliport",42.518798828125,1.2423100471496582,3150,"EU","ES","ES-CT","Tirvia","no","LETV",,,,,
43305,"LETZ","small_airport","Torozos Airport",41.785301208496094,-4.864729881286621,2784,"EU","ES","ES-CL","Valladolid","no","LETZ",,,,,
43308,"LEUL","heliport","Ullastrell-Teresa Vilá Heliport",41.52429962158203,1.9715800285339355,450,"EU","ES","ES-CT","Ullastrell","no","LEUL",,,,,
43253,"LEVB","small_airport","El Carrascal Airport",41.82469940185547,-4.893060207366943,2788,"EU","ES","ES-CL","Valladolid","no","LEVB",,,,,
4042,"LEVC","medium_airport","Valencia Airport",39.4893,-0.481625,240,"EU","ES","ES-V","Valencia","yes","LEVC","VLC",,,"https://en.wikipedia.org/wiki/Valencia_Airport",
4043,"LEVD","medium_airport","Valladolid Airport",41.7061004639,-4.85194015503,2776,"EU","ES","ES-CL","Valladolid","yes","LEVD","VLL",,,"https://en.wikipedia.org/wiki/Valladolid_Airport",
321575,"LEVE","small_airport","Aeródromo Virgen de La Estrella",38.4205555556,-6.3569444444,1837,"EU","ES","ES-BA","Zafra","no","LEVE",,,,,
43311,"LEVF","small_airport","Villaframil Airport",43.5525016784668,-7.087779998779297,80,"EU","ES","ES-GA","Lugo","no","LEVF",,,,,
43309,"LEVH","heliport","Vielha Heliport",42.70439910888672,0.7969459891319275,3200,"EU","ES","ES-CT","Vielha","no","LEVH",,,,,
43258,"LEVI","small_airport","Viso del Marqués Airport",38.5055999756,-3.4261500835399996,2672,"EU","ES","ES-CM","Viso del Marqués","no","LEVI",,,,,
43310,"LEVR","heliport","Vilaller Heliport",42.3046989440918,0.7130560278892517,2870,"EU","ES","ES-AR",,"no","LEVR",,,,,
4045,"LEVT","medium_airport","Vitoria/Foronda Airport",42.8828010559082,-2.7244699001312256,1682,"EU","ES","ES-PV","Alava","yes","LEVT","VIT",,,"https://en.wikipedia.org/wiki/Vitoria_Airport",
4046,"LEVX","medium_airport","Vigo Airport",42.2318000793457,-8.62677001953125,856,"EU","ES","ES-GA","Vigo","yes","LEVX","VGO",,,"https://en.wikipedia.org/wiki/Vigo-Peinador_Airport",
4047,"LEXJ","medium_airport","Santander Airport",43.427101135253906,-3.82000994682312,16,"EU","ES","ES-S","Santander","yes","LEXJ","SDR",,,"https://en.wikipedia.org/wiki/Santander_Airport",
4048,"LEZG","medium_airport","Zaragoza Air Base",41.66619873046875,-1.0415500402450562,863,"EU","ES","ES-AR","Zaragoza","yes","LEZG","ZAZ",,,"https://en.wikipedia.org/wiki/Zaragoza_Airport",
4049,"LEZL","medium_airport","Sevilla Airport",37.417999267578125,-5.8931097984313965,112,"EU","ES","ES-AN","Sevilla","yes","LEZL","SVQ",,,"https://en.wikipedia.org/wiki/San_Pablo_Airport",